<?xml version="1.0" encoding="UTF-8"?>
<gpx creator="Garmin Connect" version="1.1"
  xsi:schemaLocation="http://www.topografix.com/GPX/1/1 http://www.topografix.com/GPX/11.xsd"
  xmlns:ns3="http://www.garmin.com/xmlschemas/TrackPointExtension/v1"
  xmlns="http://www.topografix.com/GPX/1/1"
  xmlns:xsi="http://www.w3.org/2001/XMLSchema-instance" xmlns:ns2="http://www.garmin.com/xmlschemas/GpxExtensions/v3">
  <metadata>
    <link href="connect.garmin.com">
      <text>Garmin Connect</text>
    </link>
    <time>2026-09-12T01:28:07.000Z</time>
  </metadata>
  <trk>
    <name>厦门市 骑行</name>
    <type>cycling</type>
    <trkseg>
      <trkpt lat="24.5305899716913700103759765625" lon="118.12851838767528533935546875">
        <ele>18.3999996185302734375</ele>
        <time>2026-09-12T01:28:16.000Z</time>
        <extensions>
          <ns3:TrackPointExtension>
            <ns3:atemp>30.0</ns3:atemp>
            <ns3:hr>95</ns3:hr>
          </ns3:TrackPointExtension>
        </extensions>
      </trkpt>
      <trkpt lat="24.53065778128802776336669921875" lon="118.12836776487529277801513671875">
        <ele>17.799999237060546875</ele>
        <time>2026-09-12T01:28:19.000Z</time>
        <extensions>
          <ns3:TrackPointExtension>
            <ns3:atemp>30.0</ns3:atemp>
            <ns3:hr>95</ns3:hr>
          </ns3:TrackPointExtension>
        </extensions>
      </trkpt>
      <trkpt lat="24.53060589730739593505859375" lon="118.1283763982355594635009765625">
        <ele>18</ele>
        <time>2026-09-12T01:28:23.000Z</time>
        <extensions>
          <ns3:TrackPointExtension>
            <ns3:atemp>30.0</ns3:atemp>
            <ns3:hr>94</ns3:hr>
          </ns3:TrackPointExtension>
        </extensions>
      </trkpt>
      <trkpt lat="24.53058251179754734039306640625" lon="118.128375224769115447998046875">
        <ele>18</ele>
        <time>2026-09-12T01:28:27.000Z</time>
        <extensions>
          <ns3:TrackPointExtension>
            <ns3:atemp>30.0</ns3:atemp>
            <ns3:hr>96</ns3:hr>
          </ns3:TrackPointExtension>
        </extensions>
      </trkpt>
      <trkpt lat="24.53056055121123790740966796875" lon="118.12834362499415874481201171875">
        <ele>18</ele>
        <time>2026-09-12T01:28:29.000Z</time>
        <extensions>
          <ns3:TrackPointExtension>
            <ns3:atemp>30.0</ns3:atemp>
            <ns3:hr>97</ns3:hr>
          </ns3:TrackPointExtension>
        </extensions>
      </trkpt>
      <trkpt lat="24.53061218373477458953857421875" lon="118.12821102328598499298095703125">
        <ele>17.799999237060546875</ele>
        <time>2026-09-12T01:28:34.000Z</time>
        <extensions>
          <ns3:TrackPointExtension>
            <ns3:atemp>30.0</ns3:atemp>
            <ns3:hr>99</ns3:hr>
          </ns3:TrackPointExtension>
        </extensions>
      </trkpt>
      <trkpt lat="24.53072802163660526275634765625" lon="118.128092922270298004150390625">
        <ele>17.799999237060546875</ele>
        <time>2026-09-12T01:28:40.000Z</time>
        <extensions>
          <ns3:TrackPointExtension>
            <ns3:atemp>30.0</ns3:atemp>
            <ns3:hr>98</ns3:hr>
          </ns3:TrackPointExtension>
        </extensions>
      </trkpt>
      <trkpt lat="24.53080815263092517852783203125" lon="118.12804003246128559112548828125">
        <ele>17.799999237060546875</ele>
        <time>2026-09-12T01:28:45.000Z</time>
        <extensions>
          <ns3:TrackPointExtension>
            <ns3:atemp>30.0</ns3:atemp>
            <ns3:hr>98</ns3:hr>
          </ns3:TrackPointExtension>
        </extensions>
      </trkpt>
      <trkpt lat="24.5308092422783374786376953125" lon="118.12802863307297229766845703125">
        <ele>17.6000003814697265625</ele>
        <time>2026-09-12T01:28:50.000Z</time>
        <extensions>
          <ns3:TrackPointExtension>
            <ns3:atemp>30.0</ns3:atemp>
            <ns3:hr>98</ns3:hr>
          </ns3:TrackPointExtension>
        </extensions>
      </trkpt>
      <trkpt lat="24.53080035746097564697265625" lon="118.12801505438983440399169921875">
        <ele>17.6000003814697265625</ele>
        <time>2026-09-12T01:28:51.000Z</time>
        <extensions>
          <ns3:TrackPointExtension>
            <ns3:atemp>30.0</ns3:atemp>
            <ns3:hr>99</ns3:hr>
          </ns3:TrackPointExtension>
        </extensions>
      </trkpt>
      <trkpt lat="24.53080010600388050079345703125" lon="118.12794246710836887359619140625">
        <ele>17.3999996185302734375</ele>
        <time>2026-09-12T01:28:54.000Z</time>
        <extensions>
          <ns3:TrackPointExtension>
            <ns3:atemp>30.0</ns3:atemp>
            <ns3:hr>100</ns3:hr>
          </ns3:TrackPointExtension>
        </extensions>
      </trkpt>
      <trkpt lat="24.5308085717260837554931640625" lon="118.1279234401881694793701171875">
        <ele>17.3999996185302734375</ele>
        <time>2026-09-12T01:28:56.000Z</time>
        <extensions>
          <ns3:TrackPointExtension>
            <ns3:atemp>30.0</ns3:atemp>
            <ns3:hr>100</ns3:hr>
          </ns3:TrackPointExtension>
        </extensions>
      </trkpt>
      <trkpt lat="24.53080706298351287841796875" lon="118.12792335636913776397705078125">
        <ele>17.6000003814697265625</ele>
        <time>2026-09-12T01:28:58.000Z</time>
        <extensions>
          <ns3:TrackPointExtension>
            <ns3:atemp>31.0</ns3:atemp>
            <ns3:hr>100</ns3:hr>
          </ns3:TrackPointExtension>
        </extensions>
      </trkpt>
      <trkpt lat="24.5308414287865161895751953125" lon="118.12790072523057460784912109375">
        <ele>17.6000003814697265625</ele>
        <time>2026-09-12T01:29:01.000Z</time>
        <extensions>
          <ns3:TrackPointExtension>
            <ns3:atemp>30.0</ns3:atemp>
            <ns3:hr>100</ns3:hr>
          </ns3:TrackPointExtension>
        </extensions>
      </trkpt>
      <trkpt lat="24.5308622159063816070556640625" lon="118.12790558673441410064697265625">
        <ele>17.6000003814697265625</ele>
        <time>2026-09-12T01:29:03.000Z</time>
        <extensions>
          <ns3:TrackPointExtension>
            <ns3:atemp>30.0</ns3:atemp>
            <ns3:hr>101</ns3:hr>
          </ns3:TrackPointExtension>
        </extensions>
      </trkpt>
      <trkpt lat="24.53090253286063671112060546875" lon="118.12796585261821746826171875">
        <ele>17.200000762939453125</ele>
        <time>2026-09-12T01:29:06.000Z</time>
        <extensions>
          <ns3:TrackPointExtension>
            <ns3:atemp>31.0</ns3:atemp>
            <ns3:hr>101</ns3:hr>
          </ns3:TrackPointExtension>
        </extensions>
      </trkpt>
      <trkpt lat="24.53094544820487499237060546875" lon="118.12801891006529331207275390625">
        <ele>17.200000762939453125</ele>
        <time>2026-09-12T01:29:08.000Z</time>
        <extensions>
          <ns3:TrackPointExtension>
            <ns3:atemp>30.0</ns3:atemp>
            <ns3:hr>101</ns3:hr>
          </ns3:TrackPointExtension>
        </extensions>
      </trkpt>
      <trkpt lat="24.53104318119585514068603515625" lon="118.1281494162976741790771484375">
        <ele>17.799999237060546875</ele>
        <time>2026-09-12T01:29:14.000Z</time>
        <extensions>
          <ns3:TrackPointExtension>
            <ns3:atemp>31.0</ns3:atemp>
            <ns3:hr>100</ns3:hr>
          </ns3:TrackPointExtension>
        </extensions>
      </trkpt>
      <trkpt lat="24.53116203658282756805419921875" lon="118.128307498991489410400390625">
        <ele>17.799999237060546875</ele>
        <time>2026-09-12T01:29:20.000Z</time>
        <extensions>
          <ns3:TrackPointExtension>
            <ns3:atemp>30.0</ns3:atemp>
            <ns3:hr>103</ns3:hr>
          </ns3:TrackPointExtension>
        </extensions>
      </trkpt>
      <trkpt lat="24.5312494598329067230224609375" lon="118.128423504531383514404296875">
        <ele>17.799999237060546875</ele>
        <time>2026-09-12T01:29:25.000Z</time>
        <extensions>
          <ns3:TrackPointExtension>
            <ns3:atemp>31.0</ns3:atemp>
            <ns3:hr>105</ns3:hr>
          </ns3:TrackPointExtension>
        </extensions>
      </trkpt>
      <trkpt lat="24.53134593553841114044189453125" lon="118.128544874489307403564453125">
        <ele>17.3999996185302734375</ele>
        <time>2026-09-12T01:29:30.000Z</time>
        <extensions>
          <ns3:TrackPointExtension>
            <ns3:atemp>31.0</ns3:atemp>
            <ns3:hr>105</ns3:hr>
          </ns3:TrackPointExtension>
        </extensions>
      </trkpt>
      <trkpt lat="24.531509466469287872314453125" lon="118.12876137904822826385498046875">
        <ele>17</ele>
        <time>2026-09-12T01:29:41.000Z</time>
        <extensions>
          <ns3:TrackPointExtension>
            <ns3:atemp>31.0</ns3:atemp>
            <ns3:hr>108</ns3:hr>
          </ns3:TrackPointExtension>
        </extensions>
      </trkpt>
      <trkpt lat="24.5316209457814693450927734375" lon="118.1289259158074855804443359375">
        <ele>16.6000003814697265625</ele>
        <time>2026-09-12T01:29:46.000Z</time>
        <extensions>
          <ns3:TrackPointExtension>
            <ns3:atemp>31.0</ns3:atemp>
            <ns3:hr>108</ns3:hr>
          </ns3:TrackPointExtension>
        </extensions>
      </trkpt>
      <trkpt lat="24.53167165629565715789794921875" lon="118.12899925746023654937744140625">
        <ele>16.200000762939453125</ele>
        <time>2026-09-12T01:29:48.000Z</time>
        <extensions>
          <ns3:TrackPointExtension>
            <ns3:atemp>31.0</ns3:atemp>
            <ns3:hr>108</ns3:hr>
          </ns3:TrackPointExtension>
        </extensions>
      </trkpt>
      <trkpt lat="24.5318586565554141998291015625" lon="118.1292638741433620452880859375">
        <ele>16</ele>
        <time>2026-09-12T01:29:55.000Z</time>
        <extensions>
          <ns3:TrackPointExtension>
            <ns3:atemp>31.0</ns3:atemp>
            <ns3:hr>110</ns3:hr>
          </ns3:TrackPointExtension>
        </extensions>
      </trkpt>
      <trkpt lat="24.532014392316341400146484375" lon="118.129468224942684173583984375">
        <ele>16.200000762939453125</ele>
        <time>2026-09-12T01:30:00.000Z</time>
        <extensions>
          <ns3:TrackPointExtension>
            <ns3:atemp>31.0</ns3:atemp>
            <ns3:hr>113</ns3:hr>
          </ns3:TrackPointExtension>
        </extensions>
      </trkpt>
      <trkpt lat="24.532045908272266387939453125" lon="118.1295074522495269775390625">
        <ele>16.200000762939453125</ele>
        <time>2026-09-12T01:30:01.000Z</time>
        <extensions>
          <ns3:TrackPointExtension>
            <ns3:atemp>31.0</ns3:atemp>
            <ns3:hr>114</ns3:hr>
          </ns3:TrackPointExtension>
        </extensions>
      </trkpt>
      <trkpt lat="24.53211321495473384857177734375" lon="118.1295984797179698944091796875">
        <ele>15.80000019073486328125</ele>
        <time>2026-09-12T01:30:03.000Z</time>
        <extensions>
          <ns3:TrackPointExtension>
            <ns3:atemp>31.0</ns3:atemp>
            <ns3:hr>117</ns3:hr>
          </ns3:TrackPointExtension>
        </extensions>
      </trkpt>
      <trkpt lat="24.53221295960247516632080078125" lon="118.12971741892397403717041015625">
        <ele>15.6000003814697265625</ele>
        <time>2026-09-12T01:30:06.000Z</time>
        <extensions>
          <ns3:TrackPointExtension>
            <ns3:atemp>31.0</ns3:atemp>
            <ns3:hr>120</ns3:hr>
          </ns3:TrackPointExtension>
        </extensions>
      </trkpt>
      <trkpt lat="24.53224145807325839996337890625" lon="118.129757903516292572021484375">
        <ele>15.3999996185302734375</ele>
        <time>2026-09-12T01:30:07.000Z</time>
        <extensions>
          <ns3:TrackPointExtension>
            <ns3:atemp>31.0</ns3:atemp>
            <ns3:hr>120</ns3:hr>
          </ns3:TrackPointExtension>
        </extensions>
      </trkpt>
      <trkpt lat="24.5322681963443756103515625" lon="118.1297956220805644989013671875">
        <ele>15.6000003814697265625</ele>
        <time>2026-09-12T01:30:08.000Z</time>
        <extensions>
          <ns3:TrackPointExtension>
            <ns3:atemp>31.0</ns3:atemp>
            <ns3:hr>119</ns3:hr>
          </ns3:TrackPointExtension>
        </extensions>
      </trkpt>
      <trkpt lat="24.53235662542283535003662109375" lon="118.1299196742475032806396484375">
        <ele>15.6000003814697265625</ele>
        <time>2026-09-12T01:30:11.000Z</time>
        <extensions>
          <ns3:TrackPointExtension>
            <ns3:atemp>31.0</ns3:atemp>
            <ns3:hr>118</ns3:hr>
          </ns3:TrackPointExtension>
        </extensions>
      </trkpt>
      <trkpt lat="24.53241680748760700225830078125" lon="118.12999896705150604248046875">
        <ele>15.6000003814697265625</ele>
        <time>2026-09-12T01:30:13.000Z</time>
        <extensions>
          <ns3:TrackPointExtension>
            <ns3:atemp>31.0</ns3:atemp>
            <ns3:hr>118</ns3:hr>
          </ns3:TrackPointExtension>
        </extensions>
      </trkpt>
      <trkpt lat="24.53246575780212879180908203125" lon="118.13008957542479038238525390625">
        <ele>15.6000003814697265625</ele>
        <time>2026-09-12T01:30:15.000Z</time>
        <extensions>
          <ns3:TrackPointExtension>
            <ns3:atemp>31.0</ns3:atemp>
            <ns3:hr>118</ns3:hr>
          </ns3:TrackPointExtension>
        </extensions>
      </trkpt>
      <trkpt lat="24.53248403035104274749755859375" lon="118.13017875887453556060791015625">
        <ele>15.6000003814697265625</ele>
        <time>2026-09-12T01:30:17.000Z</time>
        <extensions>
          <ns3:TrackPointExtension>
            <ns3:atemp>31.0</ns3:atemp>
            <ns3:hr>118</ns3:hr>
          </ns3:TrackPointExtension>
        </extensions>
      </trkpt>
      <trkpt lat="24.53249006532132625579833984375" lon="118.1302852928638458251953125">
        <ele>15.6000003814697265625</ele>
        <time>2026-09-12T01:30:19.000Z</time>
        <extensions>
          <ns3:TrackPointExtension>
            <ns3:atemp>31.0</ns3:atemp>
            <ns3:hr>118</ns3:hr>
          </ns3:TrackPointExtension>
        </extensions>
      </trkpt>
      <trkpt lat="24.5324735529720783233642578125" lon="118.13052040524780750274658203125">
        <ele>16.6000003814697265625</ele>
        <time>2026-09-12T01:30:24.000Z</time>
        <extensions>
          <ns3:TrackPointExtension>
            <ns3:atemp>31.0</ns3:atemp>
            <ns3:hr>115</ns3:hr>
          </ns3:TrackPointExtension>
        </extensions>
      </trkpt>
      <trkpt lat="24.5324618183076381683349609375" lon="118.1305717863142490386962890625">
        <ele>16.6000003814697265625</ele>
        <time>2026-09-12T01:30:25.000Z</time>
        <extensions>
          <ns3:TrackPointExtension>
            <ns3:atemp>31.0</ns3:atemp>
            <ns3:hr>115</ns3:hr>
          </ns3:TrackPointExtension>
        </extensions>
      </trkpt>
      <trkpt lat="24.53243440948426723480224609375" lon="118.13062987290322780609130859375">
        <ele>16.6000003814697265625</ele>
        <time>2026-09-12T01:30:26.000Z</time>
        <extensions>
          <ns3:TrackPointExtension>
            <ns3:atemp>31.0</ns3:atemp>
            <ns3:hr>114</ns3:hr>
          </ns3:TrackPointExtension>
        </extensions>
      </trkpt>
      <trkpt lat="24.53240708447992801666259765625" lon="118.13067044131457805633544921875">
        <ele>17</ele>
        <time>2026-09-12T01:30:27.000Z</time>
        <extensions>
          <ns3:TrackPointExtension>
            <ns3:atemp>31.0</ns3:atemp>
            <ns3:hr>114</ns3:hr>
          </ns3:TrackPointExtension>
        </extensions>
      </trkpt>
      <trkpt lat="24.532333910465240478515625" lon="118.1307930685579776763916015625">
        <ele>17.200000762939453125</ele>
        <time>2026-09-12T01:30:30.000Z</time>
        <extensions>
          <ns3:TrackPointExtension>
            <ns3:atemp>31.0</ns3:atemp>
            <ns3:hr>112</ns3:hr>
          </ns3:TrackPointExtension>
        </extensions>
      </trkpt>
      <trkpt lat="24.53229728154838085174560546875" lon="118.13082466833293437957763671875">
        <ele>17.3999996185302734375</ele>
        <time>2026-09-12T01:30:31.000Z</time>
        <extensions>
          <ns3:TrackPointExtension>
            <ns3:atemp>31.0</ns3:atemp>
            <ns3:hr>112</ns3:hr>
          </ns3:TrackPointExtension>
        </extensions>
      </trkpt>
      <trkpt lat="24.5320403762161731719970703125" lon="118.13100613653659820556640625">
        <ele>17.200000762939453125</ele>
        <time>2026-09-12T01:30:38.000Z</time>
        <extensions>
          <ns3:TrackPointExtension>
            <ns3:atemp>31.0</ns3:atemp>
            <ns3:hr>109</ns3:hr>
          </ns3:TrackPointExtension>
        </extensions>
      </trkpt>
      <trkpt lat="24.53201062045991420745849609375" lon="118.13103958033025264739990234375">
        <ele>17.200000762939453125</ele>
        <time>2026-09-12T01:30:39.000Z</time>
        <extensions>
          <ns3:TrackPointExtension>
            <ns3:atemp>31.0</ns3:atemp>
            <ns3:hr>109</ns3:hr>
          </ns3:TrackPointExtension>
        </extensions>
      </trkpt>
      <trkpt lat="24.5319409668445587158203125" lon="118.13110269606113433837890625">
        <ele>17.6000003814697265625</ele>
        <time>2026-09-12T01:30:41.000Z</time>
        <extensions>
          <ns3:TrackPointExtension>
            <ns3:atemp>31.0</ns3:atemp>
            <ns3:hr>110</ns3:hr>
          </ns3:TrackPointExtension>
        </extensions>
      </trkpt>
      <trkpt lat="24.53184834681451320648193359375" lon="118.13117603771388530731201171875">
        <ele>18</ele>
        <time>2026-09-12T01:30:44.000Z</time>
        <extensions>
          <ns3:TrackPointExtension>
            <ns3:atemp>31.0</ns3:atemp>
            <ns3:hr>111</ns3:hr>
          </ns3:TrackPointExtension>
        </extensions>
      </trkpt>
      <trkpt lat="24.53182504512369632720947265625" lon="118.1311980821192264556884765625">
        <ele>18</ele>
        <time>2026-09-12T01:30:45.000Z</time>
        <extensions>
          <ns3:TrackPointExtension>
            <ns3:atemp>31.0</ns3:atemp>
            <ns3:hr>112</ns3:hr>
          </ns3:TrackPointExtension>
        </extensions>
      </trkpt>
      <trkpt lat="24.53159873373806476593017578125" lon="118.13137896358966827392578125">
        <ele>18.6000003814697265625</ele>
        <time>2026-09-12T01:30:52.000Z</time>
        <extensions>
          <ns3:TrackPointExtension>
            <ns3:atemp>30.0</ns3:atemp>
            <ns3:hr>113</ns3:hr>
          </ns3:TrackPointExtension>
        </extensions>
      </trkpt>
      <trkpt lat="24.53128273598849773406982421875" lon="118.13165699131786823272705078125">
        <ele>19.6000003814697265625</ele>
        <time>2026-09-12T01:31:01.000Z</time>
        <extensions>
          <ns3:TrackPointExtension>
            <ns3:atemp>30.0</ns3:atemp>
            <ns3:hr>113</ns3:hr>
          </ns3:TrackPointExtension>
        </extensions>
      </trkpt>
      <trkpt lat="24.53112029470503330230712890625" lon="118.13178171403706073760986328125">
        <ele>19.799999237060546875</ele>
        <time>2026-09-12T01:31:05.000Z</time>
        <extensions>
          <ns3:TrackPointExtension>
            <ns3:atemp>30.0</ns3:atemp>
            <ns3:hr>116</ns3:hr>
          </ns3:TrackPointExtension>
        </extensions>
      </trkpt>
      <trkpt lat="24.5309976674616336822509765625" lon="118.1318579055368900299072265625">
        <ele>19.3999996185302734375</ele>
        <time>2026-09-12T01:31:08.000Z</time>
        <extensions>
          <ns3:TrackPointExtension>
            <ns3:atemp>30.0</ns3:atemp>
            <ns3:hr>117</ns3:hr>
          </ns3:TrackPointExtension>
        </extensions>
      </trkpt>
      <trkpt lat="24.5309165306389331817626953125" lon="118.13192504458129405975341796875">
        <ele>19.3999996185302734375</ele>
        <time>2026-09-12T01:31:10.000Z</time>
        <extensions>
          <ns3:TrackPointExtension>
            <ns3:atemp>30.0</ns3:atemp>
            <ns3:hr>119</ns3:hr>
          </ns3:TrackPointExtension>
        </extensions>
      </trkpt>
      <trkpt lat="24.53080949373543262481689453125" lon="118.13202797435224056243896484375">
        <ele>19.3999996185302734375</ele>
        <time>2026-09-12T01:31:13.000Z</time>
        <extensions>
          <ns3:TrackPointExtension>
            <ns3:atemp>30.0</ns3:atemp>
            <ns3:hr>121</ns3:hr>
          </ns3:TrackPointExtension>
        </extensions>
      </trkpt>
      <trkpt lat="24.53068493865430355072021484375" lon="118.13217197544872760772705078125">
        <ele>20</ele>
        <time>2026-09-12T01:31:17.000Z</time>
        <extensions>
          <ns3:TrackPointExtension>
            <ns3:atemp>30.0</ns3:atemp>
            <ns3:hr>120</ns3:hr>
          </ns3:TrackPointExtension>
        </extensions>
      </trkpt>
      <trkpt lat="24.53062945045530796051025390625" lon="118.1322230212390422821044921875">
        <ele>20.200000762939453125</ele>
        <time>2026-09-12T01:31:19.000Z</time>
        <extensions>
          <ns3:TrackPointExtension>
            <ns3:atemp>30.0</ns3:atemp>
            <ns3:hr>120</ns3:hr>
          </ns3:TrackPointExtension>
        </extensions>
      </trkpt>
      <trkpt lat="24.53050992451608180999755859375" lon="118.13232486136257648468017578125">
        <ele>20.200000762939453125</ele>
        <time>2026-09-12T01:31:23.000Z</time>
        <extensions>
          <ns3:TrackPointExtension>
            <ns3:atemp>30.0</ns3:atemp>
            <ns3:hr>119</ns3:hr>
          </ns3:TrackPointExtension>
        </extensions>
      </trkpt>
      <trkpt lat="24.53041738830506801605224609375" lon="118.1324456445872783660888671875">
        <ele>19.6000003814697265625</ele>
        <time>2026-09-12T01:31:28.000Z</time>
        <extensions>
          <ns3:TrackPointExtension>
            <ns3:atemp>30.0</ns3:atemp>
            <ns3:hr>119</ns3:hr>
          </ns3:TrackPointExtension>
        </extensions>
      </trkpt>
      <trkpt lat="24.5304159633815288543701171875" lon="118.132451511919498443603515625">
        <ele>20.200000762939453125</ele>
        <time>2026-09-12T01:31:31.000Z</time>
        <extensions>
          <ns3:TrackPointExtension>
            <ns3:atemp>31.0</ns3:atemp>
            <ns3:hr>119</ns3:hr>
          </ns3:TrackPointExtension>
        </extensions>
      </trkpt>
      <trkpt lat="24.5304159633815288543701171875" lon="118.132451511919498443603515625">
        <ele>20.3999996185302734375</ele>
        <time>2026-09-12T01:31:37.000Z</time>
        <extensions>
          <ns3:TrackPointExtension>
            <ns3:atemp>30.0</ns3:atemp>
            <ns3:hr>116</ns3:hr>
          </ns3:TrackPointExtension>
        </extensions>
      </trkpt>
      <trkpt lat="24.5304159633815288543701171875" lon="118.132451511919498443603515625">
        <ele>20.3999996185302734375</ele>
        <time>2026-09-12T01:31:42.000Z</time>
        <extensions>
          <ns3:TrackPointExtension>
            <ns3:atemp>30.0</ns3:atemp>
            <ns3:hr>115</ns3:hr>
          </ns3:TrackPointExtension>
        </extensions>
      </trkpt>
      <trkpt lat="24.5304159633815288543701171875" lon="118.132451511919498443603515625">
        <ele>20.3999996185302734375</ele>
        <time>2026-09-12T01:31:46.000Z</time>
        <extensions>
          <ns3:TrackPointExtension>
            <ns3:atemp>30.0</ns3:atemp>
            <ns3:hr>112</ns3:hr>
          </ns3:TrackPointExtension>
        </extensions>
      </trkpt>
      <trkpt lat="24.5304159633815288543701171875" lon="118.132451511919498443603515625">
        <ele>20.3999996185302734375</ele>
        <time>2026-09-12T01:31:52.000Z</time>
        <extensions>
          <ns3:TrackPointExtension>
            <ns3:atemp>30.0</ns3:atemp>
            <ns3:hr>109</ns3:hr>
          </ns3:TrackPointExtension>
        </extensions>
      </trkpt>
      <trkpt lat="24.5304159633815288543701171875" lon="118.132451511919498443603515625">
        <ele>20.3999996185302734375</ele>
        <time>2026-09-12T01:31:55.000Z</time>
        <extensions>
          <ns3:TrackPointExtension>
            <ns3:atemp>31.0</ns3:atemp>
            <ns3:hr>106</ns3:hr>
          </ns3:TrackPointExtension>
        </extensions>
      </trkpt>
      <trkpt lat="24.5304159633815288543701171875" lon="118.132451511919498443603515625">
        <ele>20.6000003814697265625</ele>
        <time>2026-09-12T01:31:56.000Z</time>
        <extensions>
          <ns3:TrackPointExtension>
            <ns3:atemp>31.0</ns3:atemp>
            <ns3:hr>105</ns3:hr>
          </ns3:TrackPointExtension>
        </extensions>
      </trkpt>
      <trkpt lat="24.53043465502560138702392578125" lon="118.1324959360063076019287109375">
        <ele>20.3999996185302734375</ele>
        <time>2026-09-12T01:31:59.000Z</time>
        <extensions>
          <ns3:TrackPointExtension>
            <ns3:atemp>30.0</ns3:atemp>
            <ns3:hr>102</ns3:hr>
          </ns3:TrackPointExtension>
        </extensions>
      </trkpt>
      <trkpt lat="24.53045946545898914337158203125" lon="118.13254295848309993743896484375">
        <ele>20.200000762939453125</ele>
        <time>2026-09-12T01:32:01.000Z</time>
        <extensions>
          <ns3:TrackPointExtension>
            <ns3:atemp>31.0</ns3:atemp>
            <ns3:hr>101</ns3:hr>
          </ns3:TrackPointExtension>
        </extensions>
      </trkpt>
      <trkpt lat="24.530574716627597808837890625" lon="118.13267958350479602813720703125">
        <ele>20.3999996185302734375</ele>
        <time>2026-09-12T01:32:06.000Z</time>
        <extensions>
          <ns3:TrackPointExtension>
            <ns3:atemp>31.0</ns3:atemp>
            <ns3:hr>100</ns3:hr>
          </ns3:TrackPointExtension>
        </extensions>
      </trkpt>
      <trkpt lat="24.5307586155831813812255859375" lon="118.13291184604167938232421875">
        <ele>20.799999237060546875</ele>
        <time>2026-09-12T01:32:12.000Z</time>
        <extensions>
          <ns3:TrackPointExtension>
            <ns3:atemp>30.0</ns3:atemp>
            <ns3:hr>99</ns3:hr>
          </ns3:TrackPointExtension>
        </extensions>
      </trkpt>
      <trkpt lat="24.53080379404127597808837890625" lon="118.13301066868007183074951171875">
        <ele>20.200000762939453125</ele>
        <time>2026-09-12T01:32:14.000Z</time>
        <extensions>
          <ns3:TrackPointExtension>
            <ns3:atemp>31.0</ns3:atemp>
            <ns3:hr>100</ns3:hr>
          </ns3:TrackPointExtension>
        </extensions>
      </trkpt>
      <trkpt lat="24.5308457873761653900146484375" lon="118.1331198848783969879150390625">
        <ele>20</ele>
        <time>2026-09-12T01:32:16.000Z</time>
        <extensions>
          <ns3:TrackPointExtension>
            <ns3:atemp>31.0</ns3:atemp>
            <ns3:hr>101</ns3:hr>
          </ns3:TrackPointExtension>
        </extensions>
      </trkpt>
      <trkpt lat="24.53091979958117008209228515625" lon="118.1332922168076038360595703125">
        <ele>19.3999996185302734375</ele>
        <time>2026-09-12T01:32:19.000Z</time>
        <extensions>
          <ns3:TrackPointExtension>
            <ns3:atemp>31.0</ns3:atemp>
            <ns3:hr>104</ns3:hr>
          </ns3:TrackPointExtension>
        </extensions>
      </trkpt>
      <trkpt lat="24.531002528965473175048828125" lon="118.13348273746669292449951171875">
        <ele>17.3999996185302734375</ele>
        <time>2026-09-12T01:32:22.000Z</time>
        <extensions>
          <ns3:TrackPointExtension>
            <ns3:atemp>31.0</ns3:atemp>
            <ns3:hr>105</ns3:hr>
          </ns3:TrackPointExtension>
        </extensions>
      </trkpt>
      <trkpt lat="24.53106053173542022705078125" lon="118.133662529289722442626953125">
        <ele>17</ele>
        <time>2026-09-12T01:32:25.000Z</time>
        <extensions>
          <ns3:TrackPointExtension>
            <ns3:atemp>31.0</ns3:atemp>
            <ns3:hr>106</ns3:hr>
          </ns3:TrackPointExtension>
        </extensions>
      </trkpt>
      <trkpt lat="24.5311062969267368316650390625" lon="118.13379018567502498626708984375">
        <ele>18.3999996185302734375</ele>
        <time>2026-09-12T01:32:27.000Z</time>
        <extensions>
          <ns3:TrackPointExtension>
            <ns3:atemp>31.0</ns3:atemp>
            <ns3:hr>105</ns3:hr>
          </ns3:TrackPointExtension>
        </extensions>
      </trkpt>
      <trkpt lat="24.53113001771271228790283203125" lon="118.1338548101484775543212890625">
        <ele>19</ele>
        <time>2026-09-12T01:32:28.000Z</time>
        <extensions>
          <ns3:TrackPointExtension>
            <ns3:atemp>30.0</ns3:atemp>
            <ns3:hr>105</ns3:hr>
          </ns3:TrackPointExtension>
        </extensions>
      </trkpt>
      <trkpt lat="24.5311991684138774871826171875" lon="118.1340542994439601898193359375">
        <ele>19.3999996185302734375</ele>
        <time>2026-09-12T01:32:31.000Z</time>
        <extensions>
          <ns3:TrackPointExtension>
            <ns3:atemp>31.0</ns3:atemp>
            <ns3:hr>106</ns3:hr>
          </ns3:TrackPointExtension>
        </extensions>
      </trkpt>
      <trkpt lat="24.5312742702662944793701171875" lon="118.1343138031661510467529296875">
        <ele>19.3999996185302734375</ele>
        <time>2026-09-12T01:32:35.000Z</time>
        <extensions>
          <ns3:TrackPointExtension>
            <ns3:atemp>31.0</ns3:atemp>
            <ns3:hr>106</ns3:hr>
          </ns3:TrackPointExtension>
        </extensions>
      </trkpt>
      <trkpt lat="24.531337805092334747314453125" lon="118.1345042400062084197998046875">
        <ele>19.3999996185302734375</ele>
        <time>2026-09-12T01:32:38.000Z</time>
        <extensions>
          <ns3:TrackPointExtension>
            <ns3:atemp>30.0</ns3:atemp>
            <ns3:hr>107</ns3:hr>
          </ns3:TrackPointExtension>
        </extensions>
      </trkpt>
      <trkpt lat="24.5313815586268901824951171875" lon="118.13463474623858928680419921875">
        <ele>19.3999996185302734375</ele>
        <time>2026-09-12T01:32:40.000Z</time>
        <extensions>
          <ns3:TrackPointExtension>
            <ns3:atemp>31.0</ns3:atemp>
            <ns3:hr>108</ns3:hr>
          </ns3:TrackPointExtension>
        </extensions>
      </trkpt>
      <trkpt lat="24.53141952864825725555419921875" lon="118.134760893881320953369140625">
        <ele>19.200000762939453125</ele>
        <time>2026-09-12T01:32:42.000Z</time>
        <extensions>
          <ns3:TrackPointExtension>
            <ns3:atemp>30.0</ns3:atemp>
            <ns3:hr>109</ns3:hr>
          </ns3:TrackPointExtension>
        </extensions>
      </trkpt>
      <trkpt lat="24.53145883977413177490234375" lon="118.13488050363957881927490234375">
        <ele>19</ele>
        <time>2026-09-12T01:32:44.000Z</time>
        <extensions>
          <ns3:TrackPointExtension>
            <ns3:atemp>31.0</ns3:atemp>
            <ns3:hr>110</ns3:hr>
          </ns3:TrackPointExtension>
        </extensions>
      </trkpt>
      <trkpt lat="24.53147434629499912261962890625" lon="118.1349367462098598480224609375">
        <ele>19</ele>
        <time>2026-09-12T01:32:45.000Z</time>
        <extensions>
          <ns3:TrackPointExtension>
            <ns3:atemp>31.0</ns3:atemp>
            <ns3:hr>110</ns3:hr>
          </ns3:TrackPointExtension>
        </extensions>
      </trkpt>
      <trkpt lat="24.5315371267497539520263671875" lon="118.135171942412853240966796875">
        <ele>19</ele>
        <time>2026-09-12T01:32:49.000Z</time>
        <extensions>
          <ns3:TrackPointExtension>
            <ns3:atemp>31.0</ns3:atemp>
            <ns3:hr>113</ns3:hr>
          </ns3:TrackPointExtension>
        </extensions>
      </trkpt>
      <trkpt lat="24.5315802097320556640625" lon="118.13528182916343212127685546875">
        <ele>19</ele>
        <time>2026-09-12T01:32:51.000Z</time>
        <extensions>
          <ns3:TrackPointExtension>
            <ns3:atemp>30.0</ns3:atemp>
            <ns3:hr>115</ns3:hr>
          </ns3:TrackPointExtension>
        </extensions>
      </trkpt>
      <trkpt lat="24.5315998233854770660400390625" lon="118.13533564098179340362548828125">
        <ele>18.799999237060546875</ele>
        <time>2026-09-12T01:32:52.000Z</time>
        <extensions>
          <ns3:TrackPointExtension>
            <ns3:atemp>31.0</ns3:atemp>
            <ns3:hr>114</ns3:hr>
          </ns3:TrackPointExtension>
        </extensions>
      </trkpt>
      <trkpt lat="24.53167199157178401947021484375" lon="118.1355040334165096282958984375">
        <ele>17.200000762939453125</ele>
        <time>2026-09-12T01:32:55.000Z</time>
        <extensions>
          <ns3:TrackPointExtension>
            <ns3:atemp>30.0</ns3:atemp>
            <ns3:hr>115</ns3:hr>
          </ns3:TrackPointExtension>
        </extensions>
      </trkpt>
      <trkpt lat="24.531725384294986724853515625" lon="118.1356686539947986602783203125">
        <ele>15.80000019073486328125</ele>
        <time>2026-09-12T01:32:58.000Z</time>
        <extensions>
          <ns3:TrackPointExtension>
            <ns3:atemp>31.0</ns3:atemp>
            <ns3:hr>116</ns3:hr>
          </ns3:TrackPointExtension>
        </extensions>
      </trkpt>
      <trkpt lat="24.53173619695007801055908203125" lon="118.1357253156602382659912109375">
        <ele>15.6000003814697265625</ele>
        <time>2026-09-12T01:32:59.000Z</time>
        <extensions>
          <ns3:TrackPointExtension>
            <ns3:atemp>30.0</ns3:atemp>
            <ns3:hr>115</ns3:hr>
          </ns3:TrackPointExtension>
        </extensions>
      </trkpt>
      <trkpt lat="24.531835354864597320556640625" lon="118.13602262176573276519775390625">
        <ele>14.80000019073486328125</ele>
        <time>2026-09-12T01:33:04.000Z</time>
        <extensions>
          <ns3:TrackPointExtension>
            <ns3:atemp>30.0</ns3:atemp>
            <ns3:hr>116</ns3:hr>
          </ns3:TrackPointExtension>
        </extensions>
      </trkpt>
      <trkpt lat="24.53187885694205760955810546875" lon="118.13614122569561004638671875">
        <ele>15</ele>
        <time>2026-09-12T01:33:06.000Z</time>
        <extensions>
          <ns3:TrackPointExtension>
            <ns3:atemp>30.0</ns3:atemp>
            <ns3:hr>116</ns3:hr>
          </ns3:TrackPointExtension>
        </extensions>
      </trkpt>
      <trkpt lat="24.5319436490535736083984375" lon="118.136317245662212371826171875">
        <ele>15.80000019073486328125</ele>
        <time>2026-09-12T01:33:09.000Z</time>
        <extensions>
          <ns3:TrackPointExtension>
            <ns3:atemp>30.0</ns3:atemp>
            <ns3:hr>116</ns3:hr>
          </ns3:TrackPointExtension>
        </extensions>
      </trkpt>
      <trkpt lat="24.5320427231490612030029296875" lon="118.13660415820777416229248046875">
        <ele>16.3999996185302734375</ele>
        <time>2026-09-12T01:33:14.000Z</time>
        <extensions>
          <ns3:TrackPointExtension>
            <ns3:atemp>30.0</ns3:atemp>
            <ns3:hr>117</ns3:hr>
          </ns3:TrackPointExtension>
        </extensions>
      </trkpt>
      <trkpt lat="24.532178342342376708984375" lon="118.1369732134044170379638671875">
        <ele>16.3999996185302734375</ele>
        <time>2026-09-12T01:33:20.000Z</time>
        <extensions>
          <ns3:TrackPointExtension>
            <ns3:atemp>30.0</ns3:atemp>
            <ns3:hr>117</ns3:hr>
          </ns3:TrackPointExtension>
        </extensions>
      </trkpt>
      <trkpt lat="24.5323739759624004364013671875" lon="118.13746497966349124908447265625">
        <ele>16.6000003814697265625</ele>
        <time>2026-09-12T01:33:28.000Z</time>
        <extensions>
          <ns3:TrackPointExtension>
            <ns3:atemp>30.0</ns3:atemp>
            <ns3:hr>119</ns3:hr>
          </ns3:TrackPointExtension>
        </extensions>
      </trkpt>
      <trkpt lat="24.532434828579425811767578125" lon="118.137582242488861083984375">
        <ele>16.6000003814697265625</ele>
        <time>2026-09-12T01:33:30.000Z</time>
        <extensions>
          <ns3:TrackPointExtension>
            <ns3:atemp>30.0</ns3:atemp>
            <ns3:hr>120</ns3:hr>
          </ns3:TrackPointExtension>
        </extensions>
      </trkpt>
      <trkpt lat="24.53251655213534832000732421875" lon="118.13775398768484592437744140625">
        <ele>16.799999237060546875</ele>
        <time>2026-09-12T01:33:33.000Z</time>
        <extensions>
          <ns3:TrackPointExtension>
            <ns3:atemp>30.0</ns3:atemp>
            <ns3:hr>122</ns3:hr>
          </ns3:TrackPointExtension>
        </extensions>
      </trkpt>
      <trkpt lat="24.53254857100546360015869140625" lon="118.1378328613936901092529296875">
        <ele>16.799999237060546875</ele>
        <time>2026-09-12T01:33:34.000Z</time>
        <extensions>
          <ns3:TrackPointExtension>
            <ns3:atemp>30.0</ns3:atemp>
            <ns3:hr>123</ns3:hr>
          </ns3:TrackPointExtension>
        </extensions>
      </trkpt>
      <trkpt lat="24.5326790772378444671630859375" lon="118.13819713890552520751953125">
        <ele>17.3999996185302734375</ele>
        <time>2026-09-12T01:33:40.000Z</time>
        <extensions>
          <ns3:TrackPointExtension>
            <ns3:atemp>30.0</ns3:atemp>
            <ns3:hr>125</ns3:hr>
          </ns3:TrackPointExtension>
        </extensions>
      </trkpt>
      <trkpt lat="24.53270472586154937744140625" lon="118.13824801705777645111083984375">
        <ele>17.6000003814697265625</ele>
        <time>2026-09-12T01:33:41.000Z</time>
        <extensions>
          <ns3:TrackPointExtension>
            <ns3:atemp>30.0</ns3:atemp>
            <ns3:hr>125</ns3:hr>
          </ns3:TrackPointExtension>
        </extensions>
      </trkpt>
      <trkpt lat="24.53274135477840900421142578125" lon="118.13834357075393199920654296875">
        <ele>18.3999996185302734375</ele>
        <time>2026-09-12T01:33:43.000Z</time>
        <extensions>
          <ns3:TrackPointExtension>
            <ns3:atemp>30.0</ns3:atemp>
            <ns3:hr>126</ns3:hr>
          </ns3:TrackPointExtension>
        </extensions>
      </trkpt>
      <trkpt lat="24.5327820070087909698486328125" lon="118.1384715624153614044189453125">
        <ele>19</ele>
        <time>2026-09-12T01:33:46.000Z</time>
        <extensions>
          <ns3:TrackPointExtension>
            <ns3:atemp>30.0</ns3:atemp>
            <ns3:hr>127</ns3:hr>
          </ns3:TrackPointExtension>
        </extensions>
      </trkpt>
      <trkpt lat="24.53280757181346416473388671875" lon="118.1385409645736217498779296875">
        <ele>19.6000003814697265625</ele>
        <time>2026-09-12T01:33:48.000Z</time>
        <extensions>
          <ns3:TrackPointExtension>
            <ns3:atemp>30.0</ns3:atemp>
            <ns3:hr>127</ns3:hr>
          </ns3:TrackPointExtension>
        </extensions>
      </trkpt>
      <trkpt lat="24.5328502357006072998046875" lon="118.1386646814644336700439453125">
        <ele>20.3999996185302734375</ele>
        <time>2026-09-12T01:33:52.000Z</time>
        <extensions>
          <ns3:TrackPointExtension>
            <ns3:atemp>30.0</ns3:atemp>
            <ns3:hr>128</ns3:hr>
          </ns3:TrackPointExtension>
        </extensions>
      </trkpt>
      <trkpt lat="24.5328797399997711181640625" lon="118.13872897066175937652587890625">
        <ele>20.799999237060546875</ele>
        <time>2026-09-12T01:33:54.000Z</time>
        <extensions>
          <ns3:TrackPointExtension>
            <ns3:atemp>30.0</ns3:atemp>
            <ns3:hr>128</ns3:hr>
          </ns3:TrackPointExtension>
        </extensions>
      </trkpt>
      <trkpt lat="24.5329670794308185577392578125" lon="118.13893499784171581268310546875">
        <ele>21.799999237060546875</ele>
        <time>2026-09-12T01:33:59.000Z</time>
        <extensions>
          <ns3:TrackPointExtension>
            <ns3:atemp>30.0</ns3:atemp>
            <ns3:hr>129</ns3:hr>
          </ns3:TrackPointExtension>
        </extensions>
      </trkpt>
      <trkpt lat="24.53302524983882904052734375" lon="118.13906072638928890228271484375">
        <ele>22</ele>
        <time>2026-09-12T01:34:02.000Z</time>
        <extensions>
          <ns3:TrackPointExtension>
            <ns3:atemp>30.0</ns3:atemp>
            <ns3:hr>129</ns3:hr>
          </ns3:TrackPointExtension>
        </extensions>
      </trkpt>
      <trkpt lat="24.5331372320652008056640625" lon="118.13935023732483386993408203125">
        <ele>21.799999237060546875</ele>
        <time>2026-09-12T01:34:09.000Z</time>
        <extensions>
          <ns3:TrackPointExtension>
            <ns3:atemp>30.0</ns3:atemp>
            <ns3:hr>127</ns3:hr>
          </ns3:TrackPointExtension>
        </extensions>
      </trkpt>
      <trkpt lat="24.533161036670207977294921875" lon="118.13939549960196018218994140625">
        <ele>21.6000003814697265625</ele>
        <time>2026-09-12T01:34:10.000Z</time>
        <extensions>
          <ns3:TrackPointExtension>
            <ns3:atemp>30.0</ns3:atemp>
            <ns3:hr>128</ns3:hr>
          </ns3:TrackPointExtension>
        </extensions>
      </trkpt>
      <trkpt lat="24.5332346297800540924072265625" lon="118.13957847654819488525390625">
        <ele>21.799999237060546875</ele>
        <time>2026-09-12T01:34:14.000Z</time>
        <extensions>
          <ns3:TrackPointExtension>
            <ns3:atemp>30.0</ns3:atemp>
            <ns3:hr>128</ns3:hr>
          </ns3:TrackPointExtension>
        </extensions>
      </trkpt>
      <trkpt lat="24.533339403569698333740234375" lon="118.13985214568674564361572265625">
        <ele>22.799999237060546875</ele>
        <time>2026-09-12T01:34:20.000Z</time>
        <extensions>
          <ns3:TrackPointExtension>
            <ns3:atemp>30.0</ns3:atemp>
            <ns3:hr>129</ns3:hr>
          </ns3:TrackPointExtension>
        </extensions>
      </trkpt>
      <trkpt lat="24.533374272286891937255859375" lon="118.13992439769208431243896484375">
        <ele>23.200000762939453125</ele>
        <time>2026-09-12T01:34:22.000Z</time>
        <extensions>
          <ns3:TrackPointExtension>
            <ns3:atemp>30.0</ns3:atemp>
            <ns3:hr>130</ns3:hr>
          </ns3:TrackPointExtension>
        </extensions>
      </trkpt>
      <trkpt lat="24.533391036093235015869140625" lon="118.13996479846537113189697265625">
        <ele>23.3999996185302734375</ele>
        <time>2026-09-12T01:34:23.000Z</time>
        <extensions>
          <ns3:TrackPointExtension>
            <ns3:atemp>30.0</ns3:atemp>
            <ns3:hr>130</ns3:hr>
          </ns3:TrackPointExtension>
        </extensions>
      </trkpt>
      <trkpt lat="24.5334572531282901763916015625" lon="118.14017392694950103759765625">
        <ele>24</ele>
        <time>2026-09-12T01:34:28.000Z</time>
        <extensions>
          <ns3:TrackPointExtension>
            <ns3:atemp>30.0</ns3:atemp>
            <ns3:hr>132</ns3:hr>
          </ns3:TrackPointExtension>
        </extensions>
      </trkpt>
      <trkpt lat="24.533524811267852783203125" lon="118.14030468463897705078125">
        <ele>24.200000762939453125</ele>
        <time>2026-09-12T01:34:31.000Z</time>
        <extensions>
          <ns3:TrackPointExtension>
            <ns3:atemp>30.0</ns3:atemp>
            <ns3:hr>135</ns3:hr>
          </ns3:TrackPointExtension>
        </extensions>
      </trkpt>
      <trkpt lat="24.5335487835109233856201171875" lon="118.1403608433902263641357421875">
        <ele>24.200000762939453125</ele>
        <time>2026-09-12T01:34:32.000Z</time>
        <extensions>
          <ns3:TrackPointExtension>
            <ns3:atemp>30.0</ns3:atemp>
            <ns3:hr>137</ns3:hr>
          </ns3:TrackPointExtension>
        </extensions>
      </trkpt>
      <trkpt lat="24.5336356200277805328369140625" lon="118.14056360162794589996337890625">
        <ele>22.799999237060546875</ele>
        <time>2026-09-12T01:34:36.000Z</time>
        <extensions>
          <ns3:TrackPointExtension>
            <ns3:atemp>30.0</ns3:atemp>
            <ns3:hr>140</ns3:hr>
          </ns3:TrackPointExtension>
        </extensions>
      </trkpt>
      <trkpt lat="24.5336748473346233367919921875" lon="118.140671141445636749267578125">
        <ele>22.200000762939453125</ele>
        <time>2026-09-12T01:34:38.000Z</time>
        <extensions>
          <ns3:TrackPointExtension>
            <ns3:atemp>30.0</ns3:atemp>
            <ns3:hr>140</ns3:hr>
          </ns3:TrackPointExtension>
        </extensions>
      </trkpt>
      <trkpt lat="24.533698149025440216064453125" lon="118.14073660410940647125244140625">
        <ele>21</ele>
        <time>2026-09-12T01:34:39.000Z</time>
        <extensions>
          <ns3:TrackPointExtension>
            <ns3:atemp>30.0</ns3:atemp>
            <ns3:hr>140</ns3:hr>
          </ns3:TrackPointExtension>
        </extensions>
      </trkpt>
      <trkpt lat="24.5337824709713459014892578125" lon="118.1409569643437862396240234375">
        <ele>19.799999237060546875</ele>
        <time>2026-09-12T01:34:42.000Z</time>
        <extensions>
          <ns3:TrackPointExtension>
            <ns3:atemp>30.0</ns3:atemp>
            <ns3:hr>140</ns3:hr>
          </ns3:TrackPointExtension>
        </extensions>
      </trkpt>
      <trkpt lat="24.53383519314229488372802734375" lon="118.14111429266631603240966796875">
        <ele>17.3999996185302734375</ele>
        <time>2026-09-12T01:34:44.000Z</time>
        <extensions>
          <ns3:TrackPointExtension>
            <ns3:atemp>30.0</ns3:atemp>
            <ns3:hr>140</ns3:hr>
          </ns3:TrackPointExtension>
        </extensions>
      </trkpt>
      <trkpt lat="24.5338542200624942779541015625" lon="118.14119509421288967132568359375">
        <ele>17.200000762939453125</ele>
        <time>2026-09-12T01:34:45.000Z</time>
        <extensions>
          <ns3:TrackPointExtension>
            <ns3:atemp>30.0</ns3:atemp>
            <ns3:hr>138</ns3:hr>
          </ns3:TrackPointExtension>
        </extensions>
      </trkpt>
      <trkpt lat="24.5339231193065643310546875" lon="118.14142324961721897125244140625">
        <ele>17</ele>
        <time>2026-09-12T01:34:48.000Z</time>
        <extensions>
          <ns3:TrackPointExtension>
            <ns3:atemp>30.0</ns3:atemp>
            <ns3:hr>135</ns3:hr>
          </ns3:TrackPointExtension>
        </extensions>
      </trkpt>
      <trkpt lat="24.53393778763711452484130859375" lon="118.14150086604058742523193359375">
        <ele>17.200000762939453125</ele>
        <time>2026-09-12T01:34:49.000Z</time>
        <extensions>
          <ns3:TrackPointExtension>
            <ns3:atemp>30.0</ns3:atemp>
            <ns3:hr>134</ns3:hr>
          </ns3:TrackPointExtension>
        </extensions>
      </trkpt>
      <trkpt lat="24.53401406295597553253173828125" lon="118.1418568454682826995849609375">
        <ele>17.3999996185302734375</ele>
        <time>2026-09-12T01:34:54.000Z</time>
        <extensions>
          <ns3:TrackPointExtension>
            <ns3:atemp>30.0</ns3:atemp>
            <ns3:hr>133</ns3:hr>
          </ns3:TrackPointExtension>
        </extensions>
      </trkpt>
      <trkpt lat="24.5341043360531330108642578125" lon="118.1421673111617565155029296875">
        <ele>17.3999996185302734375</ele>
        <time>2026-09-12T01:34:59.000Z</time>
        <extensions>
          <ns3:TrackPointExtension>
            <ns3:atemp>30.0</ns3:atemp>
            <ns3:hr>132</ns3:hr>
          </ns3:TrackPointExtension>
        </extensions>
      </trkpt>
      <trkpt lat="24.53412336297333240509033203125" lon="118.14223143272101879119873046875">
        <ele>17.3999996185302734375</ele>
        <time>2026-09-12T01:35:00.000Z</time>
        <extensions>
          <ns3:TrackPointExtension>
            <ns3:atemp>30.0</ns3:atemp>
            <ns3:hr>132</ns3:hr>
          </ns3:TrackPointExtension>
        </extensions>
      </trkpt>
      <trkpt lat="24.5342679508030414581298828125" lon="118.1426051817834377288818359375">
        <ele>17.3999996185302734375</ele>
        <time>2026-09-12T01:35:06.000Z</time>
        <extensions>
          <ns3:TrackPointExtension>
            <ns3:atemp>30.0</ns3:atemp>
            <ns3:hr>131</ns3:hr>
          </ns3:TrackPointExtension>
        </extensions>
      </trkpt>
      <trkpt lat="24.53429854474961757659912109375" lon="118.1426658667623996734619140625">
        <ele>17.200000762939453125</ele>
        <time>2026-09-12T01:35:07.000Z</time>
        <extensions>
          <ns3:TrackPointExtension>
            <ns3:atemp>30.0</ns3:atemp>
            <ns3:hr>131</ns3:hr>
          </ns3:TrackPointExtension>
        </extensions>
      </trkpt>
      <trkpt lat="24.53441119752824306488037109375" lon="118.1429250352084636688232421875">
        <ele>16.3999996185302734375</ele>
        <time>2026-09-12T01:35:11.000Z</time>
        <extensions>
          <ns3:TrackPointExtension>
            <ns3:atemp>30.0</ns3:atemp>
            <ns3:hr>130</ns3:hr>
          </ns3:TrackPointExtension>
        </extensions>
      </trkpt>
      <trkpt lat="24.5344984531402587890625" lon="118.1431935913860797882080078125">
        <ele>16.200000762939453125</ele>
        <time>2026-09-12T01:35:15.000Z</time>
        <extensions>
          <ns3:TrackPointExtension>
            <ns3:atemp>30.0</ns3:atemp>
            <ns3:hr>129</ns3:hr>
          </ns3:TrackPointExtension>
        </extensions>
      </trkpt>
      <trkpt lat="24.5345224253833293914794921875" lon="118.14325721003115177154541015625">
        <ele>16.200000762939453125</ele>
        <time>2026-09-12T01:35:16.000Z</time>
        <extensions>
          <ns3:TrackPointExtension>
            <ns3:atemp>30.0</ns3:atemp>
            <ns3:hr>130</ns3:hr>
          </ns3:TrackPointExtension>
        </extensions>
      </trkpt>
      <trkpt lat="24.5345643348991870880126953125" lon="118.1433870457112789154052734375">
        <ele>16.3999996185302734375</ele>
        <time>2026-09-12T01:35:18.000Z</time>
        <extensions>
          <ns3:TrackPointExtension>
            <ns3:atemp>30.0</ns3:atemp>
            <ns3:hr>130</ns3:hr>
          </ns3:TrackPointExtension>
        </extensions>
      </trkpt>
      <trkpt lat="24.53462510369718074798583984375" lon="118.14358125440776348114013671875">
        <ele>16.200000762939453125</ele>
        <time>2026-09-12T01:35:21.000Z</time>
        <extensions>
          <ns3:TrackPointExtension>
            <ns3:atemp>30.0</ns3:atemp>
            <ns3:hr>130</ns3:hr>
          </ns3:TrackPointExtension>
        </extensions>
      </trkpt>
      <trkpt lat="24.5347302965819835662841796875" lon="118.1439348869025707244873046875">
        <ele>16.6000003814697265625</ele>
        <time>2026-09-12T01:35:26.000Z</time>
        <extensions>
          <ns3:TrackPointExtension>
            <ns3:atemp>30.0</ns3:atemp>
            <ns3:hr>130</ns3:hr>
          </ns3:TrackPointExtension>
        </extensions>
      </trkpt>
      <trkpt lat="24.53481252305209636688232421875" lon="118.14417100511491298675537109375">
        <ele>16.6000003814697265625</ele>
        <time>2026-09-12T01:35:29.000Z</time>
        <extensions>
          <ns3:TrackPointExtension>
            <ns3:atemp>30.0</ns3:atemp>
            <ns3:hr>131</ns3:hr>
          </ns3:TrackPointExtension>
        </extensions>
      </trkpt>
      <trkpt lat="24.53482861630618572235107421875" lon="118.14424149692058563232421875">
        <ele>16.3999996185302734375</ele>
        <time>2026-09-12T01:35:30.000Z</time>
        <extensions>
          <ns3:TrackPointExtension>
            <ns3:atemp>30.0</ns3:atemp>
            <ns3:hr>131</ns3:hr>
          </ns3:TrackPointExtension>
        </extensions>
      </trkpt>
      <trkpt lat="24.53483398072421550750732421875" lon="118.14431835897266864776611328125">
        <ele>16.200000762939453125</ele>
        <time>2026-09-12T01:35:31.000Z</time>
        <extensions>
          <ns3:TrackPointExtension>
            <ns3:atemp>30.0</ns3:atemp>
            <ns3:hr>130</ns3:hr>
          </ns3:TrackPointExtension>
        </extensions>
      </trkpt>
      <trkpt lat="24.53483649529516696929931640625" lon="118.1443898566067218780517578125">
        <ele>16</ele>
        <time>2026-09-12T01:35:32.000Z</time>
        <extensions>
          <ns3:TrackPointExtension>
            <ns3:atemp>30.0</ns3:atemp>
            <ns3:hr>131</ns3:hr>
          </ns3:TrackPointExtension>
        </extensions>
      </trkpt>
      <trkpt lat="24.53484068624675273895263671875" lon="118.14446403644979000091552734375">
        <ele>16</ele>
        <time>2026-09-12T01:35:33.000Z</time>
        <extensions>
          <ns3:TrackPointExtension>
            <ns3:atemp>30.0</ns3:atemp>
            <ns3:hr>132</ns3:hr>
          </ns3:TrackPointExtension>
        </extensions>
      </trkpt>
      <trkpt lat="24.53485158272087574005126953125" lon="118.1445357017219066619873046875">
        <ele>16</ele>
        <time>2026-09-12T01:35:34.000Z</time>
        <extensions>
          <ns3:TrackPointExtension>
            <ns3:atemp>30.0</ns3:atemp>
            <ns3:hr>131</ns3:hr>
          </ns3:TrackPointExtension>
        </extensions>
      </trkpt>
      <trkpt lat="24.53490321524441242218017578125" lon="118.14479830674827098846435546875">
        <ele>15.3999996185302734375</ele>
        <time>2026-09-12T01:35:38.000Z</time>
        <extensions>
          <ns3:TrackPointExtension>
            <ns3:atemp>30.0</ns3:atemp>
            <ns3:hr>130</ns3:hr>
          </ns3:TrackPointExtension>
        </extensions>
      </trkpt>
      <trkpt lat="24.53491947613656520843505859375" lon="118.1448612548410892486572265625">
        <ele>15.19999980926513671875</ele>
        <time>2026-09-12T01:35:39.000Z</time>
        <extensions>
          <ns3:TrackPointExtension>
            <ns3:atemp>30.0</ns3:atemp>
            <ns3:hr>130</ns3:hr>
          </ns3:TrackPointExtension>
        </extensions>
      </trkpt>
      <trkpt lat="24.535100273787975311279296875" lon="118.14543885178864002227783203125">
        <ele>15.6000003814697265625</ele>
        <time>2026-09-12T01:35:48.000Z</time>
        <extensions>
          <ns3:TrackPointExtension>
            <ns3:atemp>30.0</ns3:atemp>
            <ns3:hr>129</ns3:hr>
          </ns3:TrackPointExtension>
        </extensions>
      </trkpt>
      <trkpt lat="24.53511737287044525146484375" lon="118.14550071023404598236083984375">
        <ele>15.3999996185302734375</ele>
        <time>2026-09-12T01:35:49.000Z</time>
        <extensions>
          <ns3:TrackPointExtension>
            <ns3:atemp>30.0</ns3:atemp>
            <ns3:hr>129</ns3:hr>
          </ns3:TrackPointExtension>
        </extensions>
      </trkpt>
      <trkpt lat="24.535253159701824188232421875" lon="118.1459198892116546630859375">
        <ele>15.6000003814697265625</ele>
        <time>2026-09-12T01:35:56.000Z</time>
        <extensions>
          <ns3:TrackPointExtension>
            <ns3:atemp>30.0</ns3:atemp>
            <ns3:hr>129</ns3:hr>
          </ns3:TrackPointExtension>
        </extensions>
      </trkpt>
      <trkpt lat="24.535417445003986358642578125" lon="118.14639489166438579559326171875">
        <ele>15.80000019073486328125</ele>
        <time>2026-09-12T01:36:04.000Z</time>
        <extensions>
          <ns3:TrackPointExtension>
            <ns3:atemp>30.0</ns3:atemp>
            <ns3:hr>129</ns3:hr>
          </ns3:TrackPointExtension>
        </extensions>
      </trkpt>
      <trkpt lat="24.5355061255395412445068359375" lon="118.14668658189475536346435546875">
        <ele>16</ele>
        <time>2026-09-12T01:36:09.000Z</time>
        <extensions>
          <ns3:TrackPointExtension>
            <ns3:atemp>30.0</ns3:atemp>
            <ns3:hr>126</ns3:hr>
          </ns3:TrackPointExtension>
        </extensions>
      </trkpt>
      <trkpt lat="24.53558131121098995208740234375" lon="118.146912641823291778564453125">
        <ele>16.200000762939453125</ele>
        <time>2026-09-12T01:36:13.000Z</time>
        <extensions>
          <ns3:TrackPointExtension>
            <ns3:atemp>30.0</ns3:atemp>
            <ns3:hr>125</ns3:hr>
          </ns3:TrackPointExtension>
        </extensions>
      </trkpt>
      <trkpt lat="24.5355480350553989410400390625" lon="118.14701213501393795013427734375">
        <ele>16.3999996185302734375</ele>
        <time>2026-09-12T01:36:15.000Z</time>
        <extensions>
          <ns3:TrackPointExtension>
            <ns3:atemp>30.0</ns3:atemp>
            <ns3:hr>124</ns3:hr>
          </ns3:TrackPointExtension>
        </extensions>
      </trkpt>
      <trkpt lat="24.53551241196691989898681640625" lon="118.1470251269638538360595703125">
        <ele>16.6000003814697265625</ele>
        <time>2026-09-12T01:36:16.000Z</time>
        <extensions>
          <ns3:TrackPointExtension>
            <ns3:atemp>30.0</ns3:atemp>
            <ns3:hr>124</ns3:hr>
          </ns3:TrackPointExtension>
        </extensions>
      </trkpt>
      <trkpt lat="24.5353995077311992645263671875" lon="118.14708606339991092681884765625">
        <ele>17.200000762939453125</ele>
        <time>2026-09-12T01:36:20.000Z</time>
        <extensions>
          <ns3:TrackPointExtension>
            <ns3:atemp>30.0</ns3:atemp>
            <ns3:hr>124</ns3:hr>
          </ns3:TrackPointExtension>
        </extensions>
      </trkpt>
      <trkpt lat="24.53518417663872241973876953125" lon="118.1471736542880535125732421875">
        <ele>17.200000762939453125</ele>
        <time>2026-09-12T01:36:26.000Z</time>
        <extensions>
          <ns3:TrackPointExtension>
            <ns3:atemp>30.0</ns3:atemp>
            <ns3:hr>125</ns3:hr>
          </ns3:TrackPointExtension>
        </extensions>
      </trkpt>
      <trkpt lat="24.53499105758965015411376953125" lon="118.14723408780992031097412109375">
        <ele>17</ele>
        <time>2026-09-12T01:36:31.000Z</time>
        <extensions>
          <ns3:TrackPointExtension>
            <ns3:atemp>30.0</ns3:atemp>
            <ns3:hr>128</ns3:hr>
          </ns3:TrackPointExtension>
        </extensions>
      </trkpt>
      <trkpt lat="24.53494210727512836456298828125" lon="118.147257305681705474853515625">
        <ele>17</ele>
        <time>2026-09-12T01:36:32.000Z</time>
        <extensions>
          <ns3:TrackPointExtension>
            <ns3:atemp>30.0</ns3:atemp>
            <ns3:hr>128</ns3:hr>
          </ns3:TrackPointExtension>
        </extensions>
      </trkpt>
      <trkpt lat="24.53489852137863636016845703125" lon="118.14727012999355792999267578125">
        <ele>17</ele>
        <time>2026-09-12T01:36:33.000Z</time>
        <extensions>
          <ns3:TrackPointExtension>
            <ns3:atemp>30.0</ns3:atemp>
            <ns3:hr>129</ns3:hr>
          </ns3:TrackPointExtension>
        </extensions>
      </trkpt>
      <trkpt lat="24.5346887223422527313232421875" lon="118.1473302282392978668212890625">
        <ele>17</ele>
        <time>2026-09-12T01:36:38.000Z</time>
        <extensions>
          <ns3:TrackPointExtension>
            <ns3:atemp>30.0</ns3:atemp>
            <ns3:hr>132</ns3:hr>
          </ns3:TrackPointExtension>
        </extensions>
      </trkpt>
      <trkpt lat="24.53464639373123645782470703125" lon="118.14734506420791149139404296875">
        <ele>17</ele>
        <time>2026-09-12T01:36:39.000Z</time>
        <extensions>
          <ns3:TrackPointExtension>
            <ns3:atemp>29.0</ns3:atemp>
            <ns3:hr>133</ns3:hr>
          </ns3:TrackPointExtension>
        </extensions>
      </trkpt>
      <trkpt lat="24.5345599763095378875732421875" lon="118.1473604030907154083251953125">
        <ele>17.200000762939453125</ele>
        <time>2026-09-12T01:36:41.000Z</time>
        <extensions>
          <ns3:TrackPointExtension>
            <ns3:atemp>30.0</ns3:atemp>
            <ns3:hr>134</ns3:hr>
          </ns3:TrackPointExtension>
        </extensions>
      </trkpt>
      <trkpt lat="24.534520246088504791259765625" lon="118.14735394902527332305908203125">
        <ele>17.6000003814697265625</ele>
        <time>2026-09-12T01:36:42.000Z</time>
        <extensions>
          <ns3:TrackPointExtension>
            <ns3:atemp>30.0</ns3:atemp>
            <ns3:hr>134</ns3:hr>
          </ns3:TrackPointExtension>
        </extensions>
      </trkpt>
      <trkpt lat="24.5344702899456024169921875" lon="118.147340118885040283203125">
        <ele>18</ele>
        <time>2026-09-12T01:36:44.000Z</time>
        <extensions>
          <ns3:TrackPointExtension>
            <ns3:atemp>29.0</ns3:atemp>
            <ns3:hr>133</ns3:hr>
          </ns3:TrackPointExtension>
        </extensions>
      </trkpt>
      <trkpt lat="24.5344285480678081512451171875" lon="118.14737808890640735626220703125">
        <ele>18</ele>
        <time>2026-09-12T01:36:47.000Z</time>
        <extensions>
          <ns3:TrackPointExtension>
            <ns3:atemp>30.0</ns3:atemp>
            <ns3:hr>134</ns3:hr>
          </ns3:TrackPointExtension>
        </extensions>
      </trkpt>
      <trkpt lat="24.53442536294460296630859375" lon="118.1473999656736850738525390625">
        <ele>18</ele>
        <time>2026-09-12T01:36:48.000Z</time>
        <extensions>
          <ns3:TrackPointExtension>
            <ns3:atemp>30.0</ns3:atemp>
            <ns3:hr>134</ns3:hr>
          </ns3:TrackPointExtension>
        </extensions>
      </trkpt>
      <trkpt lat="24.53435939736664295196533203125" lon="118.14755327068269252777099609375">
        <ele>18.200000762939453125</ele>
        <time>2026-09-12T01:36:54.000Z</time>
        <extensions>
          <ns3:TrackPointExtension>
            <ns3:atemp>30.0</ns3:atemp>
            <ns3:hr>132</ns3:hr>
          </ns3:TrackPointExtension>
        </extensions>
      </trkpt>
      <trkpt lat="24.53422646038234233856201171875" lon="118.1476252712309360504150390625">
        <ele>18.3999996185302734375</ele>
        <time>2026-09-12T01:37:00.000Z</time>
        <extensions>
          <ns3:TrackPointExtension>
            <ns3:atemp>30.0</ns3:atemp>
            <ns3:hr>131</ns3:hr>
          </ns3:TrackPointExtension>
        </extensions>
      </trkpt>
      <trkpt lat="24.53413945622742176055908203125" lon="118.14766122959554195404052734375">
        <ele>18.3999996185302734375</ele>
        <time>2026-09-12T01:37:04.000Z</time>
        <extensions>
          <ns3:TrackPointExtension>
            <ns3:atemp>30.0</ns3:atemp>
            <ns3:hr>128</ns3:hr>
          </ns3:TrackPointExtension>
        </extensions>
      </trkpt>
      <trkpt lat="24.5341120474040508270263671875" lon="118.14768369309604167938232421875">
        <ele>18.3999996185302734375</ele>
        <time>2026-09-12T01:37:06.000Z</time>
        <extensions>
          <ns3:TrackPointExtension>
            <ns3:atemp>30.0</ns3:atemp>
            <ns3:hr>127</ns3:hr>
          </ns3:TrackPointExtension>
        </extensions>
      </trkpt>
      <trkpt lat="24.53409352339804172515869140625" lon="118.14767397008836269378662109375">
        <ele>18.3999996185302734375</ele>
        <time>2026-09-12T01:37:07.000Z</time>
        <extensions>
          <ns3:TrackPointExtension>
            <ns3:atemp>29.0</ns3:atemp>
            <ns3:hr>127</ns3:hr>
          </ns3:TrackPointExtension>
        </extensions>
      </trkpt>
      <trkpt lat="24.5340687967836856842041015625" lon="118.14769861288368701934814453125">
        <ele>18.3999996185302734375</ele>
        <time>2026-09-12T01:37:09.000Z</time>
        <extensions>
          <ns3:TrackPointExtension>
            <ns3:atemp>30.0</ns3:atemp>
            <ns3:hr>126</ns3:hr>
          </ns3:TrackPointExtension>
        </extensions>
      </trkpt>
      <trkpt lat="24.53407265245914459228515625" lon="118.14769559539854526519775390625">
        <ele>18.6000003814697265625</ele>
        <time>2026-09-12T01:37:10.000Z</time>
        <extensions>
          <ns3:TrackPointExtension>
            <ns3:atemp>30.0</ns3:atemp>
            <ns3:hr>126</ns3:hr>
          </ns3:TrackPointExtension>
        </extensions>
      </trkpt>
      <trkpt lat="24.534066282212734222412109375" lon="118.14768956042826175689697265625">
        <ele>18.6000003814697265625</ele>
        <time>2026-09-12T01:37:12.000Z</time>
        <extensions>
          <ns3:TrackPointExtension>
            <ns3:atemp>30.0</ns3:atemp>
            <ns3:hr>125</ns3:hr>
          </ns3:TrackPointExtension>
        </extensions>
      </trkpt>
      <trkpt lat="24.53406720422208309173583984375" lon="118.14769073389470577239990234375">
        <ele>18.3999996185302734375</ele>
        <time>2026-09-12T01:37:18.000Z</time>
        <extensions>
          <ns3:TrackPointExtension>
            <ns3:atemp>30.0</ns3:atemp>
            <ns3:hr>123</ns3:hr>
          </ns3:TrackPointExtension>
        </extensions>
      </trkpt>
      <trkpt lat="24.534066282212734222412109375" lon="118.1476896442472934722900390625">
        <ele>18.3999996185302734375</ele>
        <time>2026-09-12T01:37:19.000Z</time>
        <extensions>
          <ns3:TrackPointExtension>
            <ns3:atemp>29.0</ns3:atemp>
            <ns3:hr>123</ns3:hr>
          </ns3:TrackPointExtension>
        </extensions>
      </trkpt>
      <trkpt lat="24.53406720422208309173583984375" lon="118.14769073389470577239990234375">
        <ele>18.3999996185302734375</ele>
        <time>2026-09-12T01:37:29.000Z</time>
        <extensions>
          <ns3:TrackPointExtension>
            <ns3:atemp>30.0</ns3:atemp>
            <ns3:hr>126</ns3:hr>
          </ns3:TrackPointExtension>
        </extensions>
      </trkpt>
      <trkpt lat="24.534068293869495391845703125" lon="118.14772007055580615997314453125">
        <ele>18.3999996185302734375</ele>
        <time>2026-09-12T01:37:33.000Z</time>
        <extensions>
          <ns3:TrackPointExtension>
            <ns3:atemp>30.0</ns3:atemp>
            <ns3:hr>127</ns3:hr>
          </ns3:TrackPointExtension>
        </extensions>
      </trkpt>
      <trkpt lat="24.534058906137943267822265625" lon="118.1477178074419498443603515625">
        <ele>18.3999996185302734375</ele>
        <time>2026-09-12T01:37:39.000Z</time>
        <extensions>
          <ns3:TrackPointExtension>
            <ns3:atemp>29.0</ns3:atemp>
            <ns3:hr>128</ns3:hr>
          </ns3:TrackPointExtension>
        </extensions>
      </trkpt>
      <trkpt lat="24.5340741612017154693603515625" lon="118.147665672004222869873046875">
        <ele>18.3999996185302734375</ele>
        <time>2026-09-12T01:37:45.000Z</time>
        <extensions>
          <ns3:TrackPointExtension>
            <ns3:atemp>30.0</ns3:atemp>
            <ns3:hr>127</ns3:hr>
          </ns3:TrackPointExtension>
        </extensions>
      </trkpt>
      <trkpt lat="24.5340959541499614715576171875" lon="118.1476396881043910980224609375">
        <ele>18.3999996185302734375</ele>
        <time>2026-09-12T01:37:51.000Z</time>
        <extensions>
          <ns3:TrackPointExtension>
            <ns3:atemp>30.0</ns3:atemp>
            <ns3:hr>127</ns3:hr>
          </ns3:TrackPointExtension>
        </extensions>
      </trkpt>
      <trkpt lat="24.53411431051790714263916015625" lon="118.147630132734775543212890625">
        <ele>18.3999996185302734375</ele>
        <time>2026-09-12T01:37:53.000Z</time>
        <extensions>
          <ns3:TrackPointExtension>
            <ns3:atemp>30.0</ns3:atemp>
            <ns3:hr>127</ns3:hr>
          </ns3:TrackPointExtension>
        </extensions>
      </trkpt>
      <trkpt lat="24.534123949706554412841796875" lon="118.1476272828876972198486328125">
        <ele>19.6000003814697265625</ele>
        <time>2026-09-12T01:37:54.000Z</time>
        <extensions>
          <ns3:TrackPointExtension>
            <ns3:atemp>30.0</ns3:atemp>
            <ns3:hr>127</ns3:hr>
          </ns3:TrackPointExtension>
        </extensions>
      </trkpt>
      <trkpt lat="24.53414834104478359222412109375" lon="118.1476235948503017425537109375">
        <ele>20.799999237060546875</ele>
        <time>2026-09-12T01:37:56.000Z</time>
        <extensions>
          <ns3:TrackPointExtension>
            <ns3:atemp>30.0</ns3:atemp>
            <ns3:hr>128</ns3:hr>
          </ns3:TrackPointExtension>
        </extensions>
      </trkpt>
      <trkpt lat="24.53416652977466583251953125" lon="118.14760523848235607147216796875">
        <ele>21.799999237060546875</ele>
        <time>2026-09-12T01:37:58.000Z</time>
        <extensions>
          <ns3:TrackPointExtension>
            <ns3:atemp>30.0</ns3:atemp>
            <ns3:hr>129</ns3:hr>
          </ns3:TrackPointExtension>
        </extensions>
      </trkpt>
      <trkpt lat="24.5341832935810089111328125" lon="118.147592581808567047119140625">
        <ele>23</ele>
        <time>2026-09-12T01:38:00.000Z</time>
        <extensions>
          <ns3:TrackPointExtension>
            <ns3:atemp>30.0</ns3:atemp>
            <ns3:hr>129</ns3:hr>
          </ns3:TrackPointExtension>
        </extensions>
      </trkpt>
      <trkpt lat="24.53418262302875518798828125" lon="118.14758378081023693084716796875">
        <ele>23.6000003814697265625</ele>
        <time>2026-09-12T01:38:01.000Z</time>
        <extensions>
          <ns3:TrackPointExtension>
            <ns3:atemp>30.0</ns3:atemp>
            <ns3:hr>129</ns3:hr>
          </ns3:TrackPointExtension>
        </extensions>
      </trkpt>
      <trkpt lat="24.5341905020177364349365234375" lon="118.14757992513477802276611328125">
        <ele>24</ele>
        <time>2026-09-12T01:38:02.000Z</time>
        <extensions>
          <ns3:TrackPointExtension>
            <ns3:atemp>30.0</ns3:atemp>
            <ns3:hr>129</ns3:hr>
          </ns3:TrackPointExtension>
        </extensions>
      </trkpt>
      <trkpt lat="24.5342086069285869598388671875" lon="118.147566430270671844482421875">
        <ele>25.200000762939453125</ele>
        <time>2026-09-12T01:38:04.000Z</time>
        <extensions>
          <ns3:TrackPointExtension>
            <ns3:atemp>30.0</ns3:atemp>
            <ns3:hr>129</ns3:hr>
          </ns3:TrackPointExtension>
        </extensions>
      </trkpt>
      <trkpt lat="24.5342337526381015777587890625" lon="118.147565759718418121337890625">
        <ele>25.6000003814697265625</ele>
        <time>2026-09-12T01:38:06.000Z</time>
        <extensions>
          <ns3:TrackPointExtension>
            <ns3:atemp>29.0</ns3:atemp>
            <ns3:hr>128</ns3:hr>
          </ns3:TrackPointExtension>
        </extensions>
      </trkpt>
      <trkpt lat="24.53425613231956958770751953125" lon="118.14763088710606098175048828125">
        <ele>25.6000003814697265625</ele>
        <time>2026-09-12T01:38:11.000Z</time>
        <extensions>
          <ns3:TrackPointExtension>
            <ns3:atemp>30.0</ns3:atemp>
            <ns3:hr>128</ns3:hr>
          </ns3:TrackPointExtension>
        </extensions>
      </trkpt>
      <trkpt lat="24.5342582277953624725341796875" lon="118.14765393733978271484375">
        <ele>26.200000762939453125</ele>
        <time>2026-09-12T01:38:17.000Z</time>
        <extensions>
          <ns3:TrackPointExtension>
            <ns3:atemp>30.0</ns3:atemp>
            <ns3:hr>129</ns3:hr>
          </ns3:TrackPointExtension>
        </extensions>
      </trkpt>
      <trkpt lat="24.53427624888718128204345703125" lon="118.14769685268402099609375">
        <ele>26</ele>
        <time>2026-09-12T01:38:24.000Z</time>
        <extensions>
          <ns3:TrackPointExtension>
            <ns3:atemp>29.0</ns3:atemp>
            <ns3:hr>130</ns3:hr>
          </ns3:TrackPointExtension>
        </extensions>
      </trkpt>
      <trkpt lat="24.5342692919075489044189453125" lon="118.14771772362291812896728515625">
        <ele>26</ele>
        <time>2026-09-12T01:38:28.000Z</time>
        <extensions>
          <ns3:TrackPointExtension>
            <ns3:atemp>30.0</ns3:atemp>
            <ns3:hr>131</ns3:hr>
          </ns3:TrackPointExtension>
        </extensions>
      </trkpt>
      <trkpt lat="24.53427784144878387451171875" lon="118.14772996120154857635498046875">
        <ele>26</ele>
        <time>2026-09-12T01:38:32.000Z</time>
        <extensions>
          <ns3:TrackPointExtension>
            <ns3:atemp>30.0</ns3:atemp>
            <ns3:hr>131</ns3:hr>
          </ns3:TrackPointExtension>
        </extensions>
      </trkpt>
      <trkpt lat="24.53424423001706600189208984375" lon="118.14773532561957836151123046875">
        <ele>26</ele>
        <time>2026-09-12T01:38:38.000Z</time>
        <extensions>
          <ns3:TrackPointExtension>
            <ns3:atemp>30.0</ns3:atemp>
            <ns3:hr>128</ns3:hr>
          </ns3:TrackPointExtension>
        </extensions>
      </trkpt>
      <trkpt lat="24.5341589860618114471435546875" lon="118.1476859562098979949951171875">
        <ele>26</ele>
        <time>2026-09-12T01:38:47.000Z</time>
        <extensions>
          <ns3:TrackPointExtension>
            <ns3:atemp>30.0</ns3:atemp>
            <ns3:hr>126</ns3:hr>
          </ns3:TrackPointExtension>
        </extensions>
      </trkpt>
      <trkpt lat="24.53418086282908916473388671875" lon="118.147672712802886962890625">
        <ele>26.200000762939453125</ele>
        <time>2026-09-12T01:38:50.000Z</time>
        <extensions>
          <ns3:TrackPointExtension>
            <ns3:atemp>30.0</ns3:atemp>
            <ns3:hr>124</ns3:hr>
          </ns3:TrackPointExtension>
        </extensions>
      </trkpt>
      <trkpt lat="24.53419494442641735076904296875" lon="118.147667683660984039306640625">
        <ele>27</ele>
        <time>2026-09-12T01:38:54.000Z</time>
        <extensions>
          <ns3:TrackPointExtension>
            <ns3:atemp>30.0</ns3:atemp>
            <ns3:hr>124</ns3:hr>
          </ns3:TrackPointExtension>
        </extensions>
      </trkpt>
      <trkpt lat="24.53419494442641735076904296875" lon="118.147667683660984039306640625">
        <ele>27.3999996185302734375</ele>
        <time>2026-09-12T01:38:56.000Z</time>
        <extensions>
          <ns3:TrackPointExtension>
            <ns3:atemp>30.0</ns3:atemp>
            <ns3:hr>124</ns3:hr>
          </ns3:TrackPointExtension>
        </extensions>
      </trkpt>
      <trkpt lat="24.5341948606073856353759765625" lon="118.147667683660984039306640625">
        <ele>27.6000003814697265625</ele>
        <time>2026-09-12T01:38:57.000Z</time>
        <extensions>
          <ns3:TrackPointExtension>
            <ns3:atemp>30.0</ns3:atemp>
            <ns3:hr>124</ns3:hr>
          </ns3:TrackPointExtension>
        </extensions>
      </trkpt>
    </trkseg>
  </trk>
</gpx>
